GLOBALSTAR M045 [-]     
1 25676U 99019A   24020.92473306 -.00000038  00000+0  48944-3 0  9999
2 25676  51.9998 328.1350 0000681 336.2615 128.7681 12.27027390130383
GLOBALSTAR M019 [-]     
1 25677U 99019B   24020.93818066  .00000007  00000+0  10071-2 0  9991
2 25677  51.9881  62.3538 0000566  27.8131  40.6821 12.13848877122811
GLOBALSTAR M044 [-]     
1 25678U 99019C   24020.72057132 -.00000065  00000+0  26231-3 0  9999
2 25678  51.9992 310.0862 0006536 124.9635 238.9991 11.90227336110181
GLOBALSTAR M025 [-]     
1 25770U 99031A   24020.96731897 -.00000053  00000+0  45543-3 0  9993
2 25770  51.9805 268.1775 0001997  33.3395  63.5594 11.22548744424076
GLOBALSTAR M049 [-]     
1 25771U 99031B   24020.94178434 -.00000035  00000+0  10354-2 0  9995
2 25771  51.9869 277.2067 0002281 229.2174 130.8424 11.12102597 60325
GLOBALSTAR M047 [-]     
1 25772U 99031C   24020.90330834 -.00000057  00000+0  34593-3 0  9992
2 25772  51.9866 323.2989 0016620  99.7812 260.4872 11.31917836412980
GLOBALSTAR M052 [-]     
1 25773U 99031D   24020.92742432 -.00000027  00000+0  13193-2 0  9995
2 25773  51.9891  33.1253 0002453  45.3350  37.3078 11.15047701421259
